start=new Date('2022-08-28T00:00:00.000Z').valueOf();
sats=[{"GP_ID":"211133379","CLASSIFICATION_TYPE":"U","RCS_SIZE":"LARGE","OBJECT_TYPE":"PAYLOAD","MEAN_MOTION_DOT":"-0.00000064","APOAPSIS":"548.292","DECAY_DATE":null,"ECCENTRICITY":"0.00015490","RA_OF_ASC_NODE":"116.7210","MEAN_MOTION":"15.06398163","TLE_LINE2":"2 45558  53.0548 116.7210 0001549  78.3602 281.7560 15.06398163130967","EPOCH":"2022-08-27T21:37:08.696640","NORAD_CAT_ID":"45558","EPHEMERIS_TYPE":"0","FILE":"3548882","REV_AT_EPOCH":"13096","LAUNCH_DATE":"2020-04-22","ELEMENT_SET_NO":"999","MEAN_ELEMENT_THEORY":"SGP4","SEMIMAJOR_AXIS":"6925.354","SITE":"AFETR","TIME_SYSTEM":"UTC","CENTER_NAME":"EARTH","BSTAR":"0.00001459500000","OBJECT_NAME":"STARLINK-1342","TLE_LINE1":"1 45558U 20025AD  22239.90079510 -.00000064  00000-0  14595-4 0  9994","MEAN_MOTION_DDOT":"0.0000000000000","COUNTRY_CODE":"US","OBJECT_ID":"2020-025AD","PERIOD":"95.592","ARG_OF_PERICENTER":"78.3602","INCLINATION":"53.0548","REF_FRAME":"TEME","MEAN_ANOMALY":"281.7560","PERIAPSIS":"546.146"},{"ARG_OF_PERICENTER":"76.9415","PERIOD":"95.591","OBJECT_ID":"2020-025AE","COUNTRY_CODE":"US","MEAN_MOTION_DDOT":"0.0000000000000","MEAN_ANOMALY":"283.1766","PERIAPSIS":"545.968","REF_FRAME":"TEME","INCLINATION":"53.0543","CENTER_NAME":"EARTH","TLE_LINE1":"1 45559U 20025AE  22239.80032992  .00001303  00000-0  10635-3 0  9993","OBJECT_NAME":"STARLINK-1344","BSTAR":"0.00010635000000","EPOCH":"2022-08-27T19:12:28.505088","TLE_LINE2":"2 45559  53.0543 117.0965 0001728  76.9415 283.1766 15.06415886130954","TIME_SYSTEM":"UTC","SITE":"AFETR","SEMIMAJOR_AXIS":"6925.300","MEAN_ELEMENT_THEORY":"SGP4","ELEMENT_SET_NO":"999","LAUNCH_DATE":"2020-04-22","FILE":"3548882","REV_AT_EPOCH":"13095","EPHEMERIS_TYPE":"0","NORAD_CAT_ID":"45559","DECAY_DATE":null,"MEAN_MOTION_DOT":"0.00001303","APOAPSIS":"548.362","OBJECT_TYPE":"PAYLOAD","RCS_SIZE":"LARGE","CLASSIFICATION_TYPE":"U","GP_ID":"211133598","MEAN_MOTION":"15.06415886","RA_OF_ASC_NODE":"117.0965","ECCENTRICITY":"0.00017280"},{"MEAN_ANOMALY":"277.0783","PERIAPSIS":"546.142","INCLINATION":"53.0553","REF_FRAME":"TEME","MEAN_MOTION_DDOT":"0.0000000000000","COUNTRY_CODE":"US","PERIOD":"95.592","OBJECT_ID":"2020-025AF","ARG_OF_PERICENTER":"83.0384","TLE_LINE1":"1 45560U 20025AF  22239.06037636  .00001368  00000-0  11070-3 0  9998","OBJECT_NAME":"STARLINK-1346","BSTAR":"0.00011070000000","CENTER_NAME":"EARTH","MEAN_ELEMENT_THEORY":"SGP4","SITE":"AFETR","TIME_SYSTEM":"UTC","SEMIMAJOR_AXIS":"6925.358","EPHEMERIS_TYPE":"0","FILE":"3548622","REV_AT_EPOCH":"13098","NORAD_CAT_ID":"45560","ELEMENT_SET_NO":"999","LAUNCH_DATE":"2020-04-22","EPOCH":"2022-08-27T01:26:56.517504","TLE_LINE2":"2 45560  53.0553 110.4765 0001561  83.0384 277.0783 15.06396972130989","MEAN_MOTION":"15.06396972","ECCENTRICITY":"0.00015610","RA_OF_ASC_NODE":"110.4765","APOAPSIS":"548.304","MEAN_MOTION_DOT":"0.00001368","DECAY_DATE":null,"GP_ID":"211101870","CLASSIFICATION_TYPE":"U","RCS_SIZE":"LARGE","OBJECT_TYPE":"PAYLOAD"},{"ELEMENT_SET_NO":"999","LAUNCH_DATE":"2020-04-22","REV_AT_EPOCH":"13229","FILE":"3548882","EPHEMERIS_TYPE":"0","NORAD_CAT_ID":"45561","SITE":"AFETR","TIME_SYSTEM":"UTC","SEMIMAJOR_AXIS":"6896.996","MEAN_ELEMENT_THEORY":"SGP4","EPOCH":"2022-08-27T19:50:20.535648","TLE_LINE2":"2 45561  53.0576  22.1621 0001483  80.3088 279.8072 15.15698346132296","RA_OF_ASC_NODE":"22.1621","ECCENTRICITY":"0.00014830","MEAN_MOTION":"15.15698346","OBJECT_TYPE":"PAYLOAD","RCS_SIZE":"LARGE","GP_ID":"211132635","CLASSIFICATION_TYPE":"U","DECAY_DATE":null,"APOAPSIS":"519.884","MEAN_MOTION_DOT":"0.00013694","REF_FRAME":"TEME","INCLINATION":"53.0576","PERIAPSIS":"517.838","MEAN_ANOMALY":"279.8072","ARG_OF_PERICENTER":"80.3088","PERIOD":"95.006","OBJECT_ID":"2020-025AG","MEAN_MOTION_DDOT":"0.0000000000000","COUNTRY_CODE":"US","BSTAR":"0.00072523000000","TLE_LINE1":"1 45561U 20025AG  22239.82662657  .00013694  00000-0  72523-3 0  9995","OBJECT_NAME":"STARLINK-1348","CENTER_NAME":"EARTH"},{"MEAN_ANOMALY":"256.7683","PERIAPSIS":"546.040","REF_FRAME":"TEME","INCLINATION":"53.0536","PERIOD":"95.592","ARG_OF_PERICENTER":"103.3495","OBJECT_ID":"2020-025AH","COUNTRY_CODE":"US","MEAN_MOTION_DDOT":"0.0000000000000","OBJECT_NAME":"STARLINK-1354","TLE_LINE1":"1 45562U 20025AH  22239.87867928 -.00000758  00000-0 -31994-4 0  9996","BSTAR":"-0.00003199400000","CENTER_NAME":"EARTH","TIME_SYSTEM":"UTC","SITE":"AFETR","SEMIMAJOR_AXIS":"6925.350","MEAN_ELEMENT_THEORY":"SGP4","LAUNCH_DATE":"2020-04-22","ELEMENT_SET_NO":"999","NORAD_CAT_ID":"45562","REV_AT_EPOCH":"13096","FILE":"3548882","EPHEMERIS_TYPE":"0","TLE_LINE2":"2 45562  53.0536 116.7944 0001697 103.3495 256.7683 15.06399591130960","EPOCH":"2022-08-27T21:05:17.889792","MEAN_MOTION":"15.06399591","RA_OF_ASC_NODE":"116.7944","ECCENTRICITY":"0.00016970","DECAY_DATE":null,"APOAPSIS":"548.390","MEAN_MOTION_DOT":"-0.00000758","RCS_SIZE":"LARGE","OBJECT_TYPE":"PAYLOAD","CLASSIFICATION_TYPE":"U","GP_ID":"211133872"},{"TLE_LINE2":"2 45563  53.0537 116.7336 0001434  91.8250 268.2904 15.06395875130961","EPOCH":"2022-08-27T21:26:32.019360","LAUNCH_DATE":"2020-04-22","ELEMENT_SET_NO":"999","NORAD_CAT_ID":"45563","REV_AT_EPOCH":"13096","FILE":"3548882","EPHEMERIS_TYPE":"0","TIME_SYSTEM":"UTC","SITE":"AFETR","SEMIMAJOR_AXIS":"6925.361","MEAN_ELEMENT_THEORY":"SGP4","RCS_SIZE":"LARGE","OBJECT_TYPE":"PAYLOAD","CLASSIFICATION_TYPE":"U","GP_ID":"211134092","DECAY_DATE":null,"MEAN_MOTION_DOT":"0.00000166","APOAPSIS":"548.219","RA_OF_ASC_NODE":"116.7336","ECCENTRICITY":"0.00014340","MEAN_MOTION":"15.06395875","PERIOD":"95.592","ARG_OF_PERICENTER":"91.8250","OBJECT_ID":"2020-025AJ","MEAN_MOTION_DDOT":"0.0000000000000","COUNTRY_CODE":"US","REF_FRAME":"TEME","INCLINATION":"53.0537","PERIAPSIS":"546.233","MEAN_ANOMALY":"268.2904","CENTER_NAME":"EARTH","BSTAR":"0.00003004700000","OBJECT_NAME":"STARLINK-1355","TLE_LINE1":"1 45563U 20025AJ  22239.89342615  .00000166  00000-0  30047-4 0  9999"},{"MEAN_MOTION":"15.06402459","RA_OF_ASC_NODE":"116.7572","ECCENTRICITY":"0.00016380","DECAY_DATE":null,"MEAN_MOTION_DOT":"0.00001384","APOAPSIS":"548.340","RCS_SIZE":"LARGE","OBJECT_TYPE":"PAYLOAD","CLASSIFICATION_TYPE":"U","GP_ID":"211132879","SEMIMAJOR_AXIS":"6925.341","SITE":"AFETR","TIME_SYSTEM":"UTC","MEAN_ELEMENT_THEORY":"SGP4","ELEMENT_SET_NO":"999","LAUNCH_DATE":"2020-04-22","FILE":"3548882","EPHEMERIS_TYPE":"0","REV_AT_EPOCH":"13096","NORAD_CAT_ID":"45564","EPOCH":"2022-08-27T21:21:13.471200","TLE_LINE2":"2 45564  53.0542 116.7572 0001638  84.2296 275.8880 15.06402459130966","TLE_LINE1":"1 45564U 20025AK  22239.88973925  .00001384  00000-0  11176-3 0  9997","OBJECT_NAME":"STARLINK-1356","BSTAR":"0.00011176000000","CENTER_NAME":"EARTH","MEAN_ANOMALY":"275.8880","PERIAPSIS":"546.072","REF_FRAME":"TEME","INCLINATION":"53.0542","ARG_OF_PERICENTER":"84.2296","PERIOD":"95.592","OBJECT_ID":"2020-025AK","MEAN_MOTION_DDOT":"0.0000000000000","COUNTRY_CODE":"US"},{"CENTER_NAME":"EARTH","BSTAR":"-0.00000599620000","OBJECT_NAME":"STARLINK-1357","TLE_LINE1":"1 45565U 20025AL  22239.88236172 -.00000371  00000-0 -59962-5 0  9998","MEAN_MOTION_DDOT":"0.0000000000000","COUNTRY_CODE":"US","PERIOD":"95.592","OBJECT_ID":"2020-025AL","ARG_OF_PERICENTER":"82.0882","INCLINATION":"53.0548","REF_FRAME":"TEME","PERIAPSIS":"545.946","MEAN_ANOMALY":"278.0309","GP_ID":"211133129","CLASSIFICATION_TYPE":"U","OBJECT_TYPE":"PAYLOAD","RCS_SIZE":"LARGE","APOAPSIS":"548.422","MEAN_MOTION_DOT":"-0.00000371","DECAY_DATE":null,"ECCENTRICITY":"0.00017880","RA_OF_ASC_NODE":"116.7873","MEAN_MOTION":"15.06409703","TLE_LINE2":"2 45565  53.0548 116.7873 0001788  82.0882 278.0309 15.06409703130960","EPOCH":"2022-08-27T21:10:36.052608","NORAD_CAT_ID":"45565","FILE":"3548882","REV_AT_EPOCH":"13096","EPHEMERIS_TYPE":"0","LAUNCH_DATE":"2020-04-22","ELEMENT_SET_NO":"999","MEAN_ELEMENT_THEORY":"SGP4","SITE":"AFETR","TIME_SYSTEM":"UTC","SEMIMAJOR_AXIS":"6925.319"},{"BSTAR":"0.00003787300000","OBJECT_NAME":"STARLINK-1358","TLE_LINE1":"1 45566U 20025AM  22239.89711330  .00000283  00000-0  37873-4 0  9990","CENTER_NAME":"EARTH","INCLINATION":"53.0551","REF_FRAME":"TEME","PERIAPSIS":"546.216","MEAN_ANOMALY":"281.8247","COUNTRY_CODE":"US","MEAN_MOTION_DDOT":"0.0000000000000","PERIOD":"95.592","ARG_OF_PERICENTER":"78.2905","OBJECT_ID":"2020-025AM","ECCENTRICITY":"0.00014570","RA_OF_ASC_NODE":"116.7348","MEAN_MOTION":"15.06396420","CLASSIFICATION_TYPE":"U","GP_ID":"211133380","OBJECT_TYPE":"PAYLOAD","RCS_SIZE":"LARGE","APOAPSIS":"548.234","MEAN_MOTION_DOT":"0.00000283","DECAY_DATE":null,"NORAD_CAT_ID":"45566","FILE":"3548882","EPHEMERIS_TYPE":"0","REV_AT_EPOCH":"13096","LAUNCH_DATE":"2020-04-22","ELEMENT_SET_NO":"999","MEAN_ELEMENT_THEORY":"SGP4","SITE":"AFETR","TIME_SYSTEM":"UTC","SEMIMAJOR_AXIS":"6925.360","TLE_LINE2":"2 45566  53.0551 116.7348 0001457  78.2905 281.8247 15.06396420130962","EPOCH":"2022-08-27T21:31:50.589120"},{"RA_OF_ASC_NODE":"116.6611","ECCENTRICITY":"0.00014260","MEAN_MOTION":"15.06409426","OBJECT_TYPE":"PAYLOAD","RCS_SIZE":"LARGE","GP_ID":"211133599","CLASSIFICATION_TYPE":"U","DECAY_DATE":null,"MEAN_MOTION_DOT":"0.00000358","APOAPSIS":"548.172","LAUNCH_DATE":"2020-04-22","ELEMENT_SET_NO":"999","NORAD_CAT_ID":"45567","FILE":"3548882","REV_AT_EPOCH":"13097","EPHEMERIS_TYPE":"0","SEMIMAJOR_AXIS":"6925.320","SITE":"AFETR","TIME_SYSTEM":"UTC","MEAN_ELEMENT_THEORY":"SGP4","TLE_LINE2":"2 45567  53.0541 116.6611 0001426  84.2056 275.9095 15.06409426130971","EPOCH":"2022-08-27T21:47:45.410208","BSTAR":"0.00004294200000","OBJECT_NAME":"STARLINK-1361","TLE_LINE1":"1 45567U 20025AN  22239.90816447  .00000358  00000-0  42942-4 0  9994","CENTER_NAME":"EARTH","REF_FRAME":"TEME","INCLINATION":"53.0541","PERIAPSIS":"546.197","MEAN_ANOMALY":"275.9095","PERIOD":"95.592","ARG_OF_PERICENTER":"84.2056","OBJECT_ID":"2020-025AN","MEAN_MOTION_DDOT":"0.0000000000000","COUNTRY_CODE":"US"}];
